NORAD_CAT_ID,OBJECT_NAME,OBJECT_TYPE,EPOCH,MEAN_MOTION,ECCENTRICITY,INCLINATION,RA_OF_ASC_NODE,ARG_OF_PERICENTER,MEAN_ANOMALY,BSTAR,MEAN_MOTION_DOT,MEAN_MOTION_DDOT,TLE_LINE0,TLE_LINE1,TLE_LINE2,SEMIMAJOR_AXIS,PERIOD,APOGEE,PERIGEE,DECAYED
52117.0,STARLINK-3738,PAYLOAD,2024-08-01 05:30:49,15.0883092,0.0001413,53.2164,187.3541,92.9251,267.1903,1.3011e-05,-8.1e-07,0.0,0 STARLINK-3738,1 52117U 22029AF  24214.22973852 -.00000081  00000-0  13011-4 0  9992,2 52117  53.2164 187.3541 0001413  92.9251 267.1903 15.08830920132410,6917.908,95.438,540.751,538.796,0.0
52117.0,STARLINK-3738,PAYLOAD,2024-08-01 15:03:07,15.08839426,0.0001397,53.2166,185.5702,91.2514,268.8638,6.5723e-05,7.58e-06,0.0,0 STARLINK-3738,1 52117U 22029AF  24214.62717317  .00000758  00000-0  65723-4 0  9995,2 52117  53.2166 185.5702 0001397  91.2514 268.8638 15.08839426132475,6917.882,95.438,540.714,538.781,0.0
52117.0,STARLINK-3738,PAYLOAD,2024-08-02 06:56:59,15.08839144,0.0001483,53.2177,182.5967,91.332,268.7842,8.6581e-05,1.09e-05,0.0,0 STARLINK-3738,1 52117U 22029AF  24215.28957563  .00001090  00000-0  86581-4 0  9992,2 52117  53.2177 182.5967 0001483  91.3320 268.7842 15.08839144132573,6917.883,95.438,540.774,538.722,0.0
52117.0,STARLINK-3738,PAYLOAD,2024-08-02 21:15:27,15.08843658,0.0001679,53.2153,179.9245,88.6673,271.4511,0.00011751,1.583e-05,0.0,0 STARLINK-3738,1 52117U 22029AF  24215.88573157  .00001583  00000-0  11751-3 0  9994,2 52117  53.2153 179.9245 0001679  88.6673 271.4511 15.08843658132662,6917.869,95.437,540.896,538.573,0.0
52117.0,STARLINK-3738,PAYLOAD,2024-08-03 05:12:23,15.08836696,0.000155,53.2172,178.4336,88.1827,271.9343,0.00014703,2.053e-05,0.0,0 STARLINK-3738,1 52117U 22029AF  24216.21693713  .00002053  00000-0  14703-3 0  9996,2 52117  53.2172 178.4336 0001550  88.1827 271.9343 15.08836696132710,6917.89,95.438,540.828,538.683,0.0
52117.0,STARLINK-3738,PAYLOAD,2024-08-03 14:44:41,15.0884846,0.0001549,53.2173,176.6506,88.0891,272.0279,0.00016405,2.324e-05,0.0,0 STARLINK-3738,1 52117U 22029AF  24216.61436947  .00002324  00000-0  16405-3 0  9996,2 52117  53.2173 176.6506 0001549  88.0891 272.0279 15.08848460132776,6917.855,95.437,540.791,538.648,0.0
52117.0,STARLINK-3738,PAYLOAD,2024-08-04 03:27:47,15.08838742,0.0001531,53.2172,174.2689,102.427,257.6894,0.00011535,1.548e-05,0.0,0 STARLINK-3738,1 52117U 22029AF  24217.14429708  .00001548  00000-0  11535-3 0  9998,2 52117  53.2172 174.2689 0001531 102.4270 257.6894 15.08838742132857,6917.884,95.438,540.808,538.69,0.0
52117.0,STARLINK-3738,PAYLOAD,2024-08-04 14:35:28,15.08853961,0.0001471,53.2158,172.1845,103.3383,256.7773,0.00020678,3.006e-05,0.0,0 STARLINK-3738,1 52117U 22029AF  24217.60796744  .00003006  00000-0  20678-3 0  9995,2 52117  53.2158 172.1845 0001471 103.3383 256.7773 15.08853961132924,6917.838,95.437,540.72,538.685,0.0
52117.0,STARLINK-3738,PAYLOAD,2024-08-04 20:57:01,15.08840638,0.0001621,53.2163,171.0003,86.4093,273.7085,0.00014963,2.094e-05,0.0,0 STARLINK-3738,1 52117U 22029AF  24217.87293563  .00002094  00000-0  14963-3 0  9991,2 52117  53.2163 171.0003 0001621  86.4093 273.7085 15.08840638132966,6917.878,95.438,540.865,538.622,0.0
52117.0,STARLINK-3738,PAYLOAD,2024-08-05 14:26:15,15.08846382,0.0001506,53.2154,167.7267,101.9939,258.1222,0.00010613,1.402e-05,0.0,0 STARLINK-3738,1 52117U 22029AF  24218.60157014  .00001402  00000-0  10613-3 0  9993,2 52117  53.2154 167.7267 0001506 101.9939 258.1222 15.08846382133079,6917.861,95.437,540.768,538.684,0.0
52117.0,STARLINK-3738,PAYLOAD,2024-08-06 03:09:22,15.08817324,0.0001494,53.2152,165.3484,89.1147,271.0016,-0.00026271,-4.464e-05,0.0,0 STARLINK-3738,1 52117U 22029AF  24219.13150742 -.00004464  00000-0 -26271-3 0  9993,2 52117  53.2152 165.3484 0001494  89.1147 271.0016 15.08817324133154,6917.95,95.439,540.848,538.781,0.0
52117.0,STARLINK-3738,PAYLOAD,2024-08-06 23:49:22,15.0884038,0.0001535,53.2165,161.4837,84.9825,275.1342,0.00033837,5.101e-05,0.0,0 STARLINK-3738,1 52117U 22029AF  24219.99262652  .00005101  00000-0  33837-3 0  9994,2 52117  53.2165 161.4837 0001535  84.9825 275.1342 15.08840380133288,6917.879,95.438,540.806,538.682,0.0
52117.0,STARLINK-3738,PAYLOAD,2024-08-08 01:15:32,15.08854994,0.0001424,53.2162,156.7188,75.1451,284.9699,0.00051342,7.896e-05,0.0,0 STARLINK-3738,1 52117U 22029AF  24221.05246452  .00007896  00000-0  51342-3 0  9998,2 52117  53.2162 156.7188 0001424  75.1451 284.9699 15.08854994133442,6917.835,95.437,540.685,538.714,0.0
52117.0,STARLINK-3738,PAYLOAD,2024-08-09 01:06:19,15.08845008,0.0001327,53.2161,152.2656,80.3918,279.7224,0.00015043,2.107e-05,0.0,0 STARLINK-3738,1 52117U 22029AF  24222.04606332  .00002107  00000-0  15043-3 0  9993,2 52117  53.2161 152.2656 0001327  80.3918 279.7224 15.08845008133598,6917.865,95.437,540.648,538.812,0.0
52117.0,STARLINK-3738,PAYLOAD,2024-08-09 12:14:01,15.08853052,0.0001545,53.2167,150.1824,85.8553,274.2616,0.0002368,3.484e-05,0.0,0 STARLINK-3738,1 52117U 22029AF  24222.50973978  .00003484  00000-0  23680-3 0  9992,2 52117  53.2167 150.1824 0001545  85.8553 274.2616 15.08853052133666,6917.84,95.437,540.774,538.637,0.0
52117.0,STARLINK-3738,PAYLOAD,2024-08-10 02:32:30,15.08848124,0.0001259,53.2156,147.5065,102.3256,257.7877,0.0003788,5.747e-05,0.0,0 STARLINK-3738,1 52117U 22029AF  24223.10590294  .00005747  00000-0  37880-3 0  9996,2 52117  53.2156 147.5065 0001259 102.3256 257.7877 15.08848124133757,6917.856,95.437,540.592,538.85,0.0
52117.0,STARLINK-3738,PAYLOAD,2024-08-10 18:26:21,15.08852515,0.00013,53.2156,144.5349,102.7441,257.3696,0.00047276,7.247e-05,0.0,0 STARLINK-3738,1 52117U 22029AF  24223.76830040  .00007247  00000-0  47276-3 0  9991,2 52117  53.2156 144.5349 0001300 102.7441 257.3696 15.08852515133851,6917.842,95.437,540.606,538.808,0.0
52117.0,STARLINK-3738,PAYLOAD,2024-08-11 02:23:16,15.08851586,0.0001273,53.2157,143.0438,99.6955,260.4181,0.00034752,5.249e-05,0.0,0 STARLINK-3738,1 52117U 22029AF  24224.09949986  .00005249  00000-0  34752-3 0  9993,2 52117  53.2157 143.0438 0001273  99.6955 260.4181 15.08851586133905,6917.845,95.437,540.591,538.829,0.0
52117.0,STARLINK-3738,PAYLOAD,2024-08-11 11:55:34,15.08875129,0.0001583,53.2156,141.2656,74.6833,285.4334,0.00086187,0.00013468,0.0,0 STARLINK-3738,1 52117U 22029AF  24224.49692994  .00013468  00000-0  86187-3 0  9992,2 52117  53.2156 141.2656 0001583  74.6833 285.4334 15.08875129133960,6917.773,95.435,540.733,538.543,0.0
52117.0,STARLINK-3738,PAYLOAD,2024-08-11 18:17:08,15.08825162,0.0001659,53.2152,140.0746,79.2542,280.8636,-0.00036367,-6.069e-05,0.0,0 STARLINK-3738,1 52117U 22029AF  24224.76190650 -.00006069  00000-0 -36367-3 0  9990,2 52117  53.2152 140.0746 0001659  79.2542 280.8636 15.08825162134007,6917.926,95.438,540.938,538.643,0.0
52117.0,STARLINK-3738,PAYLOAD,2024-08-12 03:49:26,15.08845551,0.0001399,53.2158,138.2856,91.3876,268.7277,0.00018877,2.718e-05,0.0,0 STARLINK-3738,1 52117U 22029AF  24225.15933930  .00002718  00000-0  18877-3 0  9991,2 52117  53.2158 138.2856 0001399  91.3876 268.7277 15.08845551134066,6917.863,95.437,540.696,538.761,0.0
52117.0,STARLINK-3738,PAYLOAD,2024-08-12 11:46:21,15.08879374,0.0001092,53.2158,136.8053,66.263,293.8477,0.0011391,0.00017907,0.0,0 STARLINK-3738,1 52117U 22029AF  24225.49052636  .00017907  00000-0  11391-2 0  9992,2 52117  53.2158 136.8053 0001092  66.2630 293.8477 15.08879374134115,6917.76,95.435,540.38,538.87,0.0
52117.0,STARLINK-3738,PAYLOAD,2024-08-12 22:54:02,15.0889261,8.81e-05,53.215,134.7232,108.8359,251.2729,0.0013107,0.00020663,0.0,0 STARLINK-3738,1 52117U 22029AF  24225.95419519  .00020663  00000-0  13107-2 0  9990,2 52117  53.2150 134.7232 0000881 108.8359 251.2729 15.08892610134182,6917.72,95.434,540.194,538.975,0.0
52117.0,STARLINK-3738,PAYLOAD,2024-08-13 00:29:26,15.08815634,0.0001719,53.2153,134.4244,69.4272,290.6904,-0.0017377,-0.00027819,0.0,0 STARLINK-3738,1 52117U 22029AF  24226.02044956 -.00027819  00000-0 -17377-2 0  9993,2 52117  53.2153 134.4244 0001719  69.4272 290.6904 15.08815634134196,6917.955,95.439,541.009,538.631,0.0
52117.0,STARLINK-3738,PAYLOAD,2024-08-13 22:44:53,15.08790628,0.0001825,53.2153,130.2627,65.7485,294.3698,0.00041093,6.249e-05,0.0,0 STARLINK-3738,1 52117U 22029AF  24226.94783920  .00006249  00000-0  41093-3 0  9990,2 52117  53.2153 130.2627 0001825  65.7485 294.3698 15.08790628134330,6918.031,95.441,541.159,538.634,0.0
52117.0,STARLINK-3738,PAYLOAD,2024-08-14 03:31:03,15.08806398,0.0001798,53.2166,129.3667,81.0091,279.1104,0.0014559,0.00022937,0.0,0 STARLINK-3738,1 52117U 22029AF  24227.14656456  .00022937  00000-0  14559-2 0  9994,2 52117  53.2166 129.3667 0001798  81.0091 279.1104 15.08806398134368,6917.983,95.44,541.092,538.604,0.0
52117.0,STARLINK-3738,PAYLOAD,2024-08-14 22:35:40,15.08859975,0.0001706,53.2158,125.8002,83.6955,276.4232,0.0015696,0.00024794,0.0,0 STARLINK-3738,1 52117U 22029AF  24227.94144296  .00024794  00000-0  15696-2 0  9992,2 52117  53.2158 125.8002 0001706  83.6955 276.4232 15.08859975134483,6917.819,95.436,540.865,538.504,0.0
52117.0,STARLINK-3738,PAYLOAD,2024-08-15 00:11:03,15.08864648,0.0001679,53.2158,125.5036,82.1088,278.0094,0.001635,0.00025847,0.0,0 STARLINK-3738,1 52117U 22029AF  24228.00768181  .00025847  00000-0  16350-2 0  9993,2 52117  53.2158 125.5036 0001679  82.1088 278.0094 15.08864648134495,6917.805,95.436,540.832,538.509,0.0
52117.0,STARLINK-3738,PAYLOAD,2024-08-15 09:43:21,15.08892291,0.0001629,53.2159,123.7193,83.5038,276.614,0.0017352,0.00027475,0.0,0 STARLINK-3738,1 52117U 22029AF  24228.40510988  .00027475  00000-0  17352-2 0  9999,2 52117  53.2159 123.7193 0001629  83.5038 276.6140 15.08892291134553,6917.721,95.434,540.712,538.459,0.0
52117.0,STARLINK-3738,PAYLOAD,2024-08-15 22:26:26,15.08837049,0.0001543,53.2159,121.3408,100.5535,259.5631,0.00061278,9.477e-05,0.0,0 STARLINK-3738,1 52117U 22029AF  24228.93503327  .00009477  00000-0  61278-3 0  9995,2 52117  53.2159 121.3408 0001543 100.5535 259.5631 15.08837049134637,6917.889,95.438,540.822,538.687,0.0
